{"type": "FeatureCollection", "features": [ {"type": "Feature", "properties": {"norad_id": 34141, "name": "COSMOS 2251 DEB", "group": "cosmos-2251-debris", "lat": 18.797140757823147, "lon": 9.022808037135242, "alt_km": 713.6113123116547, "timestamp": "2025-12-26T06:43:29.905637+00:00", "meta": {"OBJECT_NAME": "COSMOS 2251 DEB", "OBJECT_ID": "1993-036LN", "EPOCH": "2025-12-25T11:17:43.308960", "MEAN_MOTION": 14.49365358, "ECCENTRICITY": 0.0046501, "INCLINATION": 74.0116, "RA_OF_ASC_NODE": 4.9428, "ARG_OF_PERICENTER": 86.6297, "MEAN_ANOMALY": 31.157, "EPHEMERIS_TYPE": 0, "CLASSIFICATION_TYPE": "U", "NORAD_CAT_ID": 34141, "ELEMENT_SET_NO": 999, "REV_AT_EPOCH": 87878, "BSTAR": 0.0014291, "MEAN_MOTION_DOT": 5.513e-05, "MEAN_MOTION_DDOT": 0}, "tle": {"line1": "1 34141U 93036LN  25359.47064015  .00005513  00000+0  14291-2 0  9997", "line2": "2 34141  74.0116   4.9428 0046501  86.6297  31.1570 14.49365358878788"}}, "geometry": {"type": "Point", "coordinates": [9.022808037135242, 18.797140757823147]}}, {"type": "Feature", "properties": {"norad_id": 34270, "name": "COSMOS 2251 DEB", "group": "cosmos-2251-debris", "lat": 29.745751087303294, "lon": -70.03616911591207, "alt_km": 647.6231175074854, "timestamp": "2025-12-26T06:43:29.905647+00:00", "meta": {"OBJECT_NAME": "COSMOS 2251 DEB", "OBJECT_ID": "1993-036LQ", "EPOCH": "2025-12-25T20:45:10.054080", "MEAN_MOTION": 14.65259971, "ECCENTRICITY": 0.00481051, "INCLINATION": 74.0113, "RA_OF_ASC_NODE": 281.334, "ARG_OF_PERICENTER": 70.1563, "MEAN_ANOMALY": 290.4781, "EPHEMERIS_TYPE": 0, "CLASSIFICATION_TYPE": "U", "NORAD_CAT_ID": 34270, "ELEMENT_SET_NO": 999, "REV_AT_EPOCH": 89288, "BSTAR": 0.00053051077, "MEAN_MOTION_DOT": 2.878e-05, "MEAN_MOTION_DDOT": 0}, "tle": {"line1": "1 34270U 93036LQ  25359.86469970  .00002878  00000+0  53051-3 0  9991", "line2": "2 34270  74.0113 281.3340 0048105  70.1563 290.4781 14.65259971892880"}}, "geometry": {"type": "Point", "coordinates": [-70.03616911591207, 29.745751087303294]}}, {"type": "Feature", "properties": {"norad_id": 34271, "name": "COSMOS 2251 DEB", "group": "cosmos-2251-debris", "lat": -67.84305665705088, "lon": 37.7382915758464, "alt_km": 653.3740435969403, "timestamp": "2025-12-26T06:43:29.905658+00:00", "meta": {"OBJECT_NAME": "COSMOS 2251 DEB", "OBJECT_ID": "1993-036LR", "EPOCH": "2025-12-25T13:30:46.228320", "MEAN_MOTION": 14.7104633, "ECCENTRICITY": 0.0018087, "INCLINATION": 74.0201, "RA_OF_ASC_NODE": 174.4074, "ARG_OF_PERICENTER": 227.5372, "MEAN_ANOMALY": 190.3592, "EPHEMERIS_TYPE": 0, "CLASSIFICATION_TYPE": "U", "NORAD_CAT_ID": 34271, "ELEMENT_SET_NO": 999, "REV_AT_EPOCH": 88423, "BSTAR": 0.0023085, "MEAN_MOTION_DOT": 0.00014213, "MEAN_MOTION_DDOT": 0}, "tle": {"line1": "1 34271U 93036LR  25359.56303505  .00014213  00000+0  23085-2 0  9999", "line2": "2 34271  74.0201 174.4074 0018087 227.5372 190.3592 14.71046330884235"}}, "geometry": {"type": "Point", "coordinates": [37.7382915758464, -67.84305665705088]}}, {"type": "Feature", "properties": {"norad_id": 34273, "name": "COSMOS 2251 DEB", "group": "cosmos-2251-debris", "lat": 14.005700307945691, "lon": -122.55734065898122, "alt_km": 680.6787153135092, "timestamp": "2025-12-26T06:43:29.905668+00:00", "meta": {"OBJECT_NAME": "COSMOS 2251 DEB", "OBJECT_ID": "1993-036LT", "EPOCH": "2025-12-24T23:01:23.216736", "MEAN_MOTION": 14.61329455, "ECCENTRICITY": 0.00133915, "INCLINATION": 74.0357, "RA_OF_ASC_NODE": 64.0621, "ARG_OF_PERICENTER": 189.5178, "MEAN_ANOMALY": 229.6507, "EPHEMERIS_TYPE": 0, "CLASSIFICATION_TYPE": "U", "NORAD_CAT_ID": 34273, "ELEMENT_SET_NO": 999, "REV_AT_EPOCH": 88800, "BSTAR": 0.00091560083, "MEAN_MOTION_DOT": 4.502e-05, "MEAN_MOTION_DDOT": 0}, "tle": {"line1": "1 34273U 93036LT  25358.95929649  .00004502  00000+0  91560-3 0  9990", "line2": "2 34273  74.0357  64.0621 0013391 189.5178 229.6507 14.61329455888007"}}, "geometry": {"type": "Point", "coordinates": [-122.55734065898122, 14.005700307945691]}}, {"type": "Feature", "properties": {"norad_id": 34274, "name": "COSMOS 2251 DEB", "group": "cosmos-2251-debris", "lat": 57.58343249269867, "lon": 69.33263408505508, "alt_km": 680.9489877437263, "timestamp": "2025-12-26T06:43:29.905678+00:00", "meta": {"OBJECT_NAME": "COSMOS 2251 DEB", "OBJECT_ID": "1993-036LU", "EPOCH": "2025-12-25T12:57:34.848288", "MEAN_MOTION": 14.64921799, "ECCENTRICITY": 0.0021263, "INCLINATION": 74.0037, "RA_OF_ASC_NODE": 43.9031, "ARG_OF_PERICENTER": 192.6644, "MEAN_ANOMALY": 286.8855, "EPHEMERIS_TYPE": 0, "CLASSIFICATION_TYPE": "U", "NORAD_CAT_ID": 34274, "ELEMENT_SET_NO": 999, "REV_AT_EPOCH": 88863, "BSTAR": 0.0010315, "MEAN_MOTION_DOT": 5.509e-05, "MEAN_MOTION_DDOT": 0}, "tle": {"line1": "1 34274U 93036LU  25359.53998667  .00005509  00000+0  10315-2 0  9998", "line2": "2 34274  74.0037  43.9031 0021263 192.6644 286.8855 14.64921799888636"}}, "geometry": {"type": "Point", "coordinates": [69.33263408505508, 57.58343249269867]}}, {"type": "Feature", "properties": {"norad_id": 34276, "name": "COSMOS 2251 DEB", "group": "cosmos-2251-debris", "lat": -9.833974462136766, "lon": 56.72998169268199, "alt_km": 718.4873122737645, "timestamp": "2025-12-26T06:43:29.905688+00:00", "meta": {"OBJECT_NAME": "COSMOS 2251 DEB", "OBJECT_ID": "1993-036LW", "EPOCH": "2025-12-25T08:15:09.211104", "MEAN_MOTION": 14.57306577, "ECCENTRICITY": 0.0022096, "INCLINATION": 74.0233, "RA_OF_ASC_NODE": 61.3562, "ARG_OF_PERICENTER": 206.9326, "MEAN_ANOMALY": 272.4278, "EPHEMERIS_TYPE": 0, "CLASSIFICATION_TYPE": "U", "NORAD_CAT_ID": 34276, "ELEMENT_SET_NO": 999, "REV_AT_EPOCH": 88776, "BSTAR": 0.00069073, "MEAN_MOTION_DOT": 3.108e-05, "MEAN_MOTION_DDOT": 0}, "tle": {"line1": "1 34276U 93036LW  25359.34385661  .00003108  00000+0  69073-3 0  9992", "line2": "2 34276  74.0233  61.3562 0022096 206.9326 272.4278 14.57306577887766"}}, "geometry": {"type": "Point", "coordinates": [56.72998169268199, -9.833974462136766]}}, {"type": "Feature", "properties": {"norad_id": 34297, "name": "COSMOS 2251 DEB", "group": "cosmos-2251-debris", "lat": 69.5394589226806, "lon": -50.58157919510878, "alt_km": 767.157753014123, "timestamp": "2025-12-26T06:43:29.905699+00:00", "meta": {"OBJECT_NAME": "COSMOS 2251 DEB", "OBJECT_ID": "1993-036MT", "EPOCH": "2025-12-25T20:40:30.518976", "MEAN_MOTION": 14.36640112, "ECCENTRICITY": 0.00177805, "INCLINATION": 74.0484, "RA_OF_ASC_NODE": 260.138, "ARG_OF_PERICENTER": 326.4465, "MEAN_ANOMALY": 105.5895, "EPHEMERIS_TYPE": 0, "CLASSIFICATION_TYPE": "U", "NORAD_CAT_ID": 34297, "ELEMENT_SET_NO": 999, "REV_AT_EPOCH": 88253, "BSTAR": 0.00013313659, "MEAN_MOTION_DOT": 3.66e-06, "MEAN_MOTION_DDOT": 0}, "tle": {"line1": "1 34297U 93036MT  25359.86146434  .00000366  00000+0  13314-3 0  9995", "line2": "2 34297  74.0484 260.1380 0017780 326.4465 105.5895 14.36640112882534"}}, "geometry": {"type": "Point", "coordinates": [-50.58157919510878, 69.5394589226806]}}, {"type": "Feature", "properties": {"norad_id": 34301, "name": "COSMOS 2251 DEB", "group": "cosmos-2251-debris", "lat": -30.89809457803867, "lon": -30.337891129217045, "alt_km": 611.7404428136233, "timestamp": "2025-12-26T06:43:29.905709+00:00", "meta": {"OBJECT_NAME": "COSMOS 2251 DEB", "OBJECT_ID": "1993-036MX", "EPOCH": "2025-12-25T20:37:51.871296", "MEAN_MOTION": 14.8521316, "ECCENTRICITY": 0.00097952, "INCLINATION": 74.0058, "RA_OF_ASC_NODE": 140.6147, "ARG_OF_PERICENTER": 204.9504, "MEAN_ANOMALY": 279.4052, "EPHEMERIS_TYPE": 0, "CLASSIFICATION_TYPE": "U", "NORAD_CAT_ID": 34301, "ELEMENT_SET_NO": 999, "REV_AT_EPOCH": 88595, "BSTAR": 0.003571477, "MEAN_MOTION_DOT": 0.00030756, "MEAN_MOTION_DDOT": 0}, "tle": {"line1": "1 34301U 93036MX  25359.85962814  .00030756  00000+0  35715-2 0  9992", "line2": "2 34301  74.0058 140.6147 0009795 204.9504 279.4052 14.85213160885959"}}, "geometry": {"type": "Point", "coordinates": [-30.337891129217045, -30.89809457803867]}}, {"type": "Feature", "properties": {"norad_id": 34302, "name": "COSMOS 2251 DEB", "group": "cosmos-2251-debris", "lat": -59.089822051168134, "lon": -52.927930700994416, "alt_km": 744.9830497966532, "timestamp": "2025-12-26T06:43:29.905719+00:00", "meta": {"OBJECT_NAME": "COSMOS 2251 DEB", "OBJECT_ID": "1993-036MY", "EPOCH": "2025-12-25T10:05:51.241344", "MEAN_MOTION": 14.39377297, "ECCENTRICITY": 0.0079507, "INCLINATION": 74.1782, "RA_OF_ASC_NODE": 100.3752, "ARG_OF_PERICENTER": 312.1022, "MEAN_ANOMALY": 159.9968, "EPHEMERIS_TYPE": 0, "CLASSIFICATION_TYPE": "U", "NORAD_CAT_ID": 34302, "ELEMENT_SET_NO": 999, "REV_AT_EPOCH": 87903, "BSTAR": 0.00060141, "MEAN_MOTION_DOT": 1.915e-05, "MEAN_MOTION_DDOT": 0}, "tle": {"line1": "1 34302U 93036MY  25359.42073196  .00001915  00000+0  60141-3 0  9999", "line2": "2 34302  74.1782 100.3752 0079507 312.1022 159.9968 14.39377297879036"}}, "geometry": {"type": "Point", "coordinates": [-52.927930700994416, -59.089822051168134]}}, {"type": "Feature", "properties": {"norad_id": 34303, "name": "COSMOS 2251 DEB", "group": "cosmos-2251-debris", "lat": 73.7392746835904, "lon": -18.066311821537624, "alt_km": 640.3264908903257, "timestamp": "2025-12-26T06:43:29.905730+00:00", "meta": {"OBJECT_NAME": "COSMOS 2251 DEB", "OBJECT_ID": "1993-036MZ", "EPOCH": "2025-12-25T17:15:04.595616", "MEAN_MOTION": 14.54626581, "ECCENTRICITY": 0.01355474, "INCLINATION": 74.0045, "RA_OF_ASC_NODE": 263.4365, "ARG_OF_PERICENTER": 38.5269, "MEAN_ANOMALY": 348.7042, "EPHEMERIS_TYPE": 0, "CLASSIFICATION_TYPE": "U", "NORAD_CAT_ID": 34303, "ELEMENT_SET_NO": 999, "REV_AT_EPOCH": 88151, "BSTAR": 0.0015964318, "MEAN_MOTION_DOT": 7.691e-05, "MEAN_MOTION_DDOT": 0}, "tle": {"line1": "1 34303U 93036MZ  25359.71880319  .00007691  00000+0  15964-2 0  9994", "line2": "2 34303  74.0045 263.4365 0135547  38.5269 348.7042 14.54626581881515"}}, "geometry": {"type": "Point", "coordinates": [-18.066311821537624, 73.7392746835904]}}]}